{
  "norad_id": 49085,
  "name": "ONEWEB-0296",
  "history": [
    {
      "epoch": "2026-03-28T19:17:19.550400Z",
      "apogee_km": 1215.0050862087264,
      "perigee_km": 1212.4271965560383,
      "latitude_deg": -1.0176411622259848e-06,
      "longitude_deg": -108.92865731501695,
      "height_km": 1216.0937645426234,
      "semi_major_axis_km": 7591.853141382382,
      "eccentricity": 0.00016978,
      "inclination_deg": 87.9022,
      "raan_deg": 6.6217,
      "arg_perigee_deg": 66.6675,
      "mean_anomaly_deg": 293.4632,
      "mean_motion_rev_day": 13.12444854
    },
    {
      "epoch": "2026-03-29T04:26:13.925760Z",
      "apogee_km": 1214.9975651958084,
      "perigee_km": 1212.4345556026183,
      "latitude_deg": -3.642653164226833e-05,
      "longitude_deg": 113.3934644300906,
      "height_km": 1216.102541547136,
      "semi_major_axis_km": 7591.853060399213,
      "eccentricity": 0.0001688,
      "inclination_deg": 87.9022,
      "raan_deg": 6.5461,
      "arg_perigee_deg": 66.9542,
      "mean_anomaly_deg": 293.1764,
      "mean_motion_rev_day": 13.12444875
    },
    {
      "epoch": "2026-03-30T04:13:23.395008Z",
      "apogee_km": 1214.9818125778884,
      "perigee_km": 1212.4537249398918,
      "latitude_deg": -2.0340331189430205e-05,
      "longitude_deg": 115.43075561657689,
      "height_km": 1216.1152268914486,
      "semi_major_axis_km": 7591.85476875889,
      "eccentricity": 0.0001665,
      "inclination_deg": 87.9022,
      "raan_deg": 6.3497,
      "arg_perigee_deg": 67.1565,
      "mean_anomaly_deg": 292.9739,
      "mean_motion_rev_day": 13.12444432
    },
    {
      "epoch": "2026-03-30T06:03:10.282176Z",
      "apogee_km": 1214.98077793827,
      "perigee_km": 1212.4549678220628,
      "latitude_deg": -2.9395873899609217e-06,
      "longitude_deg": 87.8951504044926,
      "height_km": 1216.1155415357655,
      "semi_major_axis_km": 7591.854872880166,
      "eccentricity": 0.00016635,
      "inclination_deg": 87.9022,
      "raan_deg": 6.3346,
      "arg_perigee_deg": 67.1451,
      "mean_anomaly_deg": 292.9853,
      "mean_motion_rev_day": 13.12444405
    },
    {
      "epoch": "2026-03-30T11:32:30.936768Z",
      "apogee_km": 1214.9754786804278,
      "perigee_km": 1212.4612080278157,
      "latitude_deg": 8.737508277651887e-06,
      "longitude_deg": 5.288462170155785,
      "height_km": 1216.113376788912,
      "semi_major_axis_km": 7591.855343354122,
      "eccentricity": 0.00016559,
      "inclination_deg": 87.9022,
      "raan_deg": 6.2894,
      "arg_perigee_deg": 66.903,
      "mean_anomaly_deg": 293.2273,
      "mean_motion_rev_day": 13.12444283
    },
    {
      "epoch": "2026-03-30T18:51:38.500128Z",
      "apogee_km": 1214.9835122878021,
      "perigee_km": 1212.4552722720455,
      "latitude_deg": -8.336176540209052e-05,
      "longitude_deg": -104.85402593895496,
      "height_km": 1216.1265988721095,
      "semi_major_axis_km": 7591.856392279924,
      "eccentricity": 0.00016651,
      "inclination_deg": 87.9022,
      "raan_deg": 6.229,
      "arg_perigee_deg": 67.6365,
      "mean_anomaly_deg": 292.4939,
      "mean_motion_rev_day": 13.12444011
    },
    {
      "epoch": "2026-03-31T11:19:40.483776Z",
      "apogee_km": 1214.9605062706787,
      "perigee_km": 1212.4755402844603,
      "latitude_deg": 5.576940986478986e-05,
      "longitude_deg": 7.325530242476442,
      "height_km": 1216.1276609691274,
      "semi_major_axis_km": 7591.85502327757,
      "eccentricity": 0.00016366,
      "inclination_deg": 87.9021,
      "raan_deg": 6.0931,
      "arg_perigee_deg": 67.3454,
      "mean_anomaly_deg": 292.7848,
      "mean_motion_rev_day": 13.12444366
    },
    {
      "epoch": "2026-04-01T11:06:50.107680Z",
      "apogee_km": 1214.9437228040715,
      "perigee_km": 1212.4930718818086,
      "latitude_deg": -7.983089728289487e-06,
      "longitude_deg": 9.36227304954379,
      "height_km": 1216.13504721836,
      "semi_major_axis_km": 7591.85539734294,
      "eccentricity": 0.0001614,
      "inclination_deg": 87.9021,
      "raan_deg": 5.8968,
      "arg_perigee_deg": 67.3635,
      "mean_anomaly_deg": 292.7664,
      "mean_motion_rev_day": 13.12444269
    },
    {
      "epoch": "2026-04-02T10:53:59.816256Z",
      "apogee_km": 1214.9371792635393,
      "perigee_km": 1212.503533469382,
      "latitude_deg": -8.870037886070752e-06,
      "longitude_deg": 11.398664048799493,
      "height_km": 1216.1433557502753,
      "semi_major_axis_km": 7591.85735636646,
      "eccentricity": 0.00016028,
      "inclination_deg": 87.9021,
      "raan_deg": 5.7005,
      "arg_perigee_deg": 67.5196,
      "mean_anomaly_deg": 292.6102,
      "mean_motion_rev_day": 13.12443761
    },
    {
      "epoch": "2026-04-02T23:42:28.071360Z",
      "apogee_km": 1214.929029952682,
      "perigee_km": 1212.509353547246,
      "latitude_deg": 2.8285463065915526e-05,
      "longitude_deg": 178.64923652248766,
      "height_km": 1216.154609101737,
      "semi_major_axis_km": 7591.856191749964,
      "eccentricity": 0.00015936,
      "inclination_deg": 87.9022,
      "raan_deg": 5.5948,
      "arg_perigee_deg": 68.0181,
      "mean_anomaly_deg": 292.1117,
      "mean_motion_rev_day": 13.12444063
    }
  ]
}